QIANFAN-9               
1 60387U 24140J   25317.65116668  .00000105  00000+0  14439-3 0  9991
2 60387  88.9737 302.3508 0014397 284.4705  75.4848 13.50976677 63403
QIANFAN-10              
1 60388U 24140K   25317.65535747  .00000099  00000+0  13487-3 0  9999
2 60388  88.9746 301.6945 0012737 258.6652 101.3068 13.50977535 63532
QIANFAN-11              
1 60389U 24140L   25317.61831030  .00000097  00000+0  13149-3 0  9993
2 60389  88.9673 302.3075 0012420 284.6135  75.3639 13.50973681 63181
QIANFAN-12              
1 60390U 24140M   25317.63882524  .00000093  00000+0  12636-3 0  9997
2 60390  88.9716 302.3360 0011373 294.4333  65.5631 13.50974293 63311
QIANFAN-13              
1 60391U 24140N   25317.61003421  .00000100  00000+0  13588-3 0  9993
2 60391  88.9728 302.4353 0011244 297.6350  62.3659 13.50974678 63333
QIANFAN-14              
1 60392U 24140P   25317.63461823  .00000093  00000+0  12500-3 0  9994
2 60392  88.9707 302.3366 0014928 296.2353  63.7263 13.50974604 63340
QIANFAN-15              
1 60393U 24140Q   25317.64287468  .00000102  00000+0  13921-3 0  9996
2 60393  88.9730 302.2853 0010507 281.6780  78.3192 13.50973046 63339
QIANFAN-16              
1 60394U 24140R   25317.63068582  .00000088  00000+0  11729-3 0  9997
2 60394  88.9733 302.4059 0012943 301.2370  58.7513 13.50973514 63242
